NORAD_CAT_ID,OBJECT_NAME,OBJECT_TYPE,EPOCH,MEAN_MOTION,ECCENTRICITY,INCLINATION,RA_OF_ASC_NODE,ARG_OF_PERICENTER,MEAN_ANOMALY,BSTAR,MEAN_MOTION_DOT,MEAN_MOTION_DDOT,TLE_LINE0,TLE_LINE1,TLE_LINE2,SEMIMAJOR_AXIS,PERIOD,APOGEE,PERIGEE,DECAYED
54163.0,STARLINK-5161,PAYLOAD,2022-12-15 22:00:00,15.49896815,0.0001175,53.2149,263.0808,83.053,244.3117,-0.00075083,-0.0004285,0.0,0 STARLINK-5161,1 54163U 22141G   22349.91667824 -.00042850  00000-0 -75083-3 0  9999,2 54163  53.2149 263.0808 0001175  83.0530 244.3117 15.49896815  1307,6795.165,92.909,417.828,416.231,0.0
54163.0,STARLINK-5161,PAYLOAD,2022-12-16 06:00:00,15.49873745,0.0001187,53.2156,261.4873,70.8375,317.4686,-0.01047,-0.00554207,0.0,0 STARLINK-5161,1 54163U 22141G   22350.25001157 -.00554207  00000-0 -10470-1 0  9990,2 54163  53.2156 261.4873 0001187  70.8375 317.4686 15.49873745  7769,6795.232,92.911,417.904,416.29,0.0
54163.0,STARLINK-5161,PAYLOAD,2022-12-16 14:00:01,15.49582889,0.0001077,53.2171,259.8906,67.1629,21.8092,-0.02085,-0.0106259,0.0,0 STARLINK-5161,1 54163U 22141G   22350.58334491 -.01062590  00000-0 -20850-1 0  9999,2 54163  53.2171 259.8906 0001077  67.1629  21.8092 15.49582889  7812,6796.081999999999,92.928,418.679,417.215,0.0
54163.0,STARLINK-5161,PAYLOAD,2022-12-16 22:00:00,15.48814654,0.0001315,53.2174,258.2991,70.5444,78.5161,-0.022856,-0.01143322,0.0,0 STARLINK-5161,1 54163U 22141G   22350.91667824 -.01143322  00000-0 -22856-1 0  9996,2 54163  53.2174 258.2991 0001315  70.5444  78.5161 15.48814654  1301,6798.329000000002,92.974,421.088,419.3,0.0
54163.0,STARLINK-5161,PAYLOAD,2022-12-17 06:00:00,15.48000524,0.0001305,53.2172,256.7106,71.7554,136.4349,-0.023487,-0.01141808,0.0,0 STARLINK-5161,1 54163U 22141G   22351.25001157 -.01141808  00000-0 -23487-1 0  9993,2 54163  53.2172 256.7106 0001305  71.7554 136.4349 15.48000524  7912,6800.7130000000025,93.023,423.465,421.69,0.0
54163.0,STARLINK-5161,PAYLOAD,2022-12-17 14:00:01,15.47184028,0.0001132,53.2174,255.1213,87.72200000000002,178.688,-0.024091,-0.0113842,0.0,0 STARLINK-5161,1 54163U 22141G   22351.58335648 -.01138420  00000-0 -24091-1 0  9992,2 54163  53.2174 255.1213 0001132  87.7220 178.6880 15.47184028  1307,6803.105,93.072,425.74,424.2,0.0
54163.0,STARLINK-5161,PAYLOAD,2022-12-17 22:00:00,15.46379505,0.0001092,53.2172,253.5369,79.4139,244.1011,-0.025073,-0.01150933,0.0,0 STARLINK-5161,1 54163U 22141G   22351.91667824 -.01150933  00000-0 -25073-1 0  9997,2 54163  53.2172 253.5369 0001092  79.4139 244.1011 15.46379505  1301,6805.465,93.121,428.073,426.587,0.0
54163.0,STARLINK-5161,PAYLOAD,2022-12-18 14:00:01,15.44745195,0.0001148,53.2174,250.3698,69.4804,5.4551,-0.026291,-0.0114153,0.0,0 STARLINK-5161,1 54163U 22141G   22352.58334491 -.01141530  00000-0 -26291-1 0  9998,2 54163  53.2174 250.3698 0001148  69.4804   5.4551 15.44745195  1300,6810.264,93.219,432.911,431.347,0.0
54163.0,STARLINK-5161,PAYLOAD,2022-12-18 22:00:00,15.43931577,0.0001274999999999,53.2175,248.7913,75.2576,53.9182,-0.02703,-0.01141437,0.0,0 STARLINK-5161,1 54163U 22141G   22352.91667824 -.01141437  00000-0 -27030-1 0  9992,2 54163  53.2175 248.7913 0001275  75.2576  53.9182 15.43931577  8174,6812.656,93.268,435.39,433.653,0.0
54163.0,STARLINK-5161,PAYLOAD,2022-12-19 12:00:00,15.42506712,0.0001232,53.2174,246.0303,77.854,53.8918,-0.028313,-0.01139334,0.0,0 STARLINK-5161,1 54163U 22141G   22353.50001157 -.01139334  00000-0 -28313-1 0  9997,2 54163  53.2174 246.0303 0001232  77.8540  53.8918 15.42506712  1301,6816.851,93.355,439.556,437.876,0.0
54163.0,STARLINK-5161,PAYLOAD,2022-12-19 22:00:00,15.41489513,0.0001221,53.2174,244.0637,85.6245,200.4079,-0.029293,-0.01139102,0.0,0 STARLINK-5161,1 54163U 22141G   22353.91667824 -.01139102  00000-0 -29293-1 0  9992,2 54163  53.2174 244.0637 0001221  85.6245 200.4079 15.41489513  8321,6819.85,93.416,442.547,440.882,0.0
54163.0,STARLINK-5161,PAYLOAD,2022-12-20 14:00:01,15.39861258,0.0001072,53.2173,240.9199,78.9498,306.7658,-0.030904,-0.01138242,0.0,0 STARLINK-5161,1 54163U 22141G   22354.58334491 -.01138242  00000-0 -30904-1 0  9992,2 54163  53.2173 240.9199 0001072  78.9498 306.7658 15.39861258  1308,6824.656,93.515,447.253,445.79,0.0
54163.0,STARLINK-5161,PAYLOAD,2022-12-21 06:00:00,15.382354800000002,0.0001221,53.2172,237.7872,85.0275,36.4566,-0.032652,-0.011397,0.0,0 STARLINK-5161,1 54163U 22141G   22355.25001157 -.01139700  00000-0 -32652-1 0  9999,2 54163  53.2172 237.7872 0001221  85.0275  36.4566 15.38235480  8535,6829.464,93.614,452.163,450.495,0.0
54163.0,STARLINK-5161,PAYLOAD,2022-12-21 14:00:01,15.37422672,0.000131,53.2172,236.2212,93.9855,73.9179,-0.033615,-0.01142286,0.0,0 STARLINK-5161,1 54163U 22141G   22355.58334491 -.01142286  00000-0 -33615-1 0  9998,2 54163  53.2172 236.2212 0001310  93.9855  73.9179 15.37422672  1302,6831.871,93.663,454.631,452.841,0.0
54163.0,STARLINK-5161,PAYLOAD,2022-12-22 06:00:00,15.35795901,0.000126,53.2172,233.1,82.4662,175.3391,-0.035454,-0.01142726,0.0,0 STARLINK-5161,1 54163U 22141G   22356.25001157 -.01142726  00000-0 -35454-1 0  9995,2 54163  53.2172 233.1000 0001260  82.4662 175.3391 15.35795901  8683,6836.694,93.762,459.421,457.698,0.0
54163.0,STARLINK-5161,PAYLOAD,2022-12-22 14:00:01,15.34978416,0.000119,53.2174,231.5398,88.9568,212.3357,-0.036191,-0.01136707,0.0,0 STARLINK-5161,1 54163U 22141G   22356.58334491 -.01136707  00000-0 -36191-1 0  9992,2 54163  53.2174 231.5398 0001190  88.9568 212.3357 15.34978416  1304,6839.121999999999,93.812,461.8,460.173,0.0
54163.0,STARLINK-5161,PAYLOAD,2022-12-22 22:00:00,15.34166414,0.0001163,53.2173,229.9851,80.6259,263.1716,-0.037226,-0.01138962,0.0,0 STARLINK-5161,1 54163U 22141G   22356.91667824 -.01138962  00000-0 -37226-1 0  9993,2 54163  53.2173 229.9851 0001163  80.6259 263.1716 15.34166414  1304,6841.535,93.862,464.195,462.604,0.0
54163.0,STARLINK-5161,PAYLOAD,2022-12-23 06:00:00,15.33353658,0.0001184,53.2173,228.4301,61.9223,323.4042,-0.03825,-0.01140242,0.0,0 STARLINK-5161,1 54163U 22141G   22357.25001157 -.01140242  00000-0 -38250-1 0  9994,2 54163  53.2173 228.4301 0001184  61.9223 323.4042 15.33353658  8849,6843.9519999999975,93.912,466.627,465.007,0.0
54163.0,STARLINK-5161,PAYLOAD,2022-12-23 14:00:01,15.32547206,0.0001324,53.217,226.8768,65.171,0.7036,-0.039624,-0.01150431,0.0,0 STARLINK-5161,1 54163U 22141G   22357.58334491 -.01150431  00000-0 -39624-1 0  9997,2 54163  53.2170 226.8768 0001324  65.1710   0.7036 15.32547206  1303,6846.353,93.961,469.124,467.311,0.0
54163.0,STARLINK-5161,PAYLOAD,2022-12-23 22:00:01,15.31754913,0.0001353,53.2171,225.3276,83.8116,21.6891,-0.041763,-0.0117971,0.0,0 STARLINK-5161,1 54163U 22141G   22357.91668981 -.01179710  00000-0 -41763-1 0  9996,2 54163  53.2171 225.3276 0001353  83.8116  21.6891 15.31754913  1306,6848.7130000000025,94.01,471.505,469.652,0.0
54163.0,STARLINK-5161,PAYLOAD,2022-12-24 06:00:00,15.30918557,0.0001351999999999,53.2168,223.7782,68.9675,75.0761,-0.041621,-0.01148241,0.0,0 STARLINK-5161,1 54163U 22141G   22358.25001157 -.01148241  00000-0 -41621-1 0  9998,2 54163  53.2168 223.7782 0001352  68.9675  75.0761 15.30918557  8995,6851.206999999999,94.061,473.999,472.146,0.0
54163.0,STARLINK-5161,PAYLOAD,2022-12-24 14:00:01,15.30097278,0.0001375999999999,53.2169,222.2303,67.7974,113.8678,-0.04228,-0.01137873,0.0,0 STARLINK-5161,1 54163U 22141G   22358.58334491 -.01137873  00000-0 -42280-1 0  9995,2 54163  53.2169 222.2303 0001376  67.7974 113.8678 15.30097278  1308,6853.659000000002,94.112,476.467,474.581,0.0
54163.0,STARLINK-5161,PAYLOAD,2022-12-24 22:00:00,15.2929383,0.0001323,53.2171,220.6867,87.8433,130.4559,-0.043923,-0.01151601,0.0,0 STARLINK-5161,1 54163U 22141G   22358.91667824 -.01151601  00000-0 -43923-1 0  9991,2 54163  53.2171 220.6867 0001323  87.8433 130.4559 15.29293830  1306,6856.059,94.161,478.831,477.017,0.0
54163.0,STARLINK-5161,PAYLOAD,2022-12-25 06:00:00,15.28480971,0.0001373,53.2167,219.143,70.632,183.3295,-0.045119,-0.01153428,0.0,0 STARLINK-5161,1 54163U 22141G   22359.25001157 -.01153428  00000-0 -45119-1 0  9998,2 54163  53.2167 219.1430 0001373  70.6320 183.3295 15.28480971  9147,6858.49,94.211,481.296,479.413,0.0
54163.0,STARLINK-5161,PAYLOAD,2022-12-25 14:00:01,15.27663116,0.0001228,53.2169,217.6007,76.1588,212.4886,-0.045955,-0.0114626,0.0,0 STARLINK-5161,1 54163U 22141G   22359.58334491 -.01146260  00000-0 -45955-1 0  9998,2 54163  53.2169 217.6007 0001228  76.1588 212.4886 15.27663116  1301,6860.937,94.262,483.645,481.96,0.0
54163.0,STARLINK-5161,PAYLOAD,2022-12-26 00:00:00,15.26636968,0.0001214,53.2175,215.6783,74.8261,345.8053,-0.046898,-0.01134725,0.0,0 STARLINK-5161,1 54163U 22141G   22360.00001157 -.01134725  00000-0 -46898-1 0  9997,2 54163  53.2175 215.6783 0001214  74.8261 345.8053 15.26636968  1306,6864.011,94.325,486.71,485.043,0.0
54163.0,STARLINK-5161,PAYLOAD,2022-12-26 06:00:00,15.26044466,0.0001240999999999,53.2165,214.525,70.3881,284.6899,-0.048899,-0.01175326,0.0,0 STARLINK-5161,1 54163U 22141G   22360.25001157 -.01175326  00000-0 -48899-1 0  9999,2 54163  53.2165 214.5250 0001241  70.3881 284.6899 15.26044466  9303,6865.788000000001,94.362,488.505,486.801,0.0
54163.0,STARLINK-5161,PAYLOAD,2022-12-26 14:00:01,15.25217822,0.0001243,53.2168,212.9885,68.2336,318.601,-0.049221,-0.01155448,0.0,0 STARLINK-5161,1 54163U 22141G   22360.58334491 -.01155448  00000-0 -49221-1 0  9998,2 54163  53.2168 212.9885 0001243  68.2336 318.6010 15.25217822  1307,6868.268,94.413,490.987,489.28,0.0
54163.0,STARLINK-5161,PAYLOAD,2022-12-26 22:00:00,15.24404854,0.0001250999999999,53.2171,211.4565,75.3409,342.2658,-0.05056,-0.0115795,0.0,0 STARLINK-5161,1 54163U 22141G   22360.91667824 -.01157950  00000-0 -50560-1 0  9992,2 54163  53.2171 211.4565 0001251  75.3409 342.2658 15.24404854  1302,6870.71,94.463,493.435,491.716,0.0
